KUIPER-00607            
1 69290U 26118Z   26162.21454677  .00006200  00000+0  17747-3 0  9993
2 69290  51.8674  82.1551 0006277 138.8842 221.2619 15.37286424  3061
KUIPER-00608            
1 69291U 26118AA  26162.22333014  .00022190  00000+0  63764-3 0  9992
2 69291  51.8601  82.2082 0009278 152.8716 207.2756 15.35705626  3066
KUIPER-00610            
1 69292U 26118AB  26162.20772913  .00036972  00000+0  97216-3 0  9998
2 69292  51.8712  82.1042 0002811 115.6804 244.4473 15.38223183  3061
KUIPER-00613            
1 69293U 26118AC  26162.22673696 -.00012726  00000+0 -35668-3 0  9995
2 69293  51.8633  82.2304 0009792 163.1756 196.9556 15.35112908  3067
KUIPER-00618            
1 69294U 26118AD  26162.20482548  .00020366  00000+0  53700-3 0  9992
2 69294  51.8716  82.0851 0001952  72.0791 288.0409 15.38470492  3060
KUIPER-00620            
1 69295U 26118AE  26162.20706997  .00019942  00000+0  52926-3 0  9997
2 69295  51.8713  82.1020 0003012  99.4839 260.6488 15.38282598  3063
STARLINK-37501          
1 69296U 26119A   26162.13270632  .00233145  00000+0  12308-2 0  9995
2 69296  97.2838 187.6220 0001003  73.3961 286.7417 15.79992123  3084
STARLINK-37496          
1 69297U 26119B   26162.13318352  .00137661  00000+0  73542-3 0  9992
2 69297  97.2844 187.6216 0000913  81.9068 278.2303 15.79984296  3081
STARLINK-37519          
1 69298U 26119C   26162.12887657  .00198045  00000+0  10081-2 0  9992
2 69298  97.2845 187.6277 0001216  67.4063 292.7334 15.80886794  3082
STARLINK-37455          
1 69299U 26119D   26162.13149208  .00230256  00000+0  12150-2 0  9997
2 69299  97.2843 187.6242 0000956  45.8111 314.3235 15.80009895  3087
STARLINK-37456          
1 69300U 26119E   26162.12808453  .00211543  00000+0  10744-2 0  9998
2 69300  97.2841 187.6284 0000789 100.6770 259.4587 15.80899911  3084
STARLINK-37630          
1 69301U 26119F   26162.25002315 -.02303491  00000+0 -17739-1 0  9994
2 69301  97.2841 187.7508 0001318  88.6505 231.6104 15.75282279  3090
STARLINK-37804          
1 69302U 26119G   26162.25002315 -.00778414  00000+0 -57715-2 0  9993
2 69302  97.2839 187.7507 0001481  93.2883 228.7791 15.74947413  3095
STARLINK-37730          
1 69303U 26119H   26162.12584546  .00203635  00000+0  10356-2 0  9997
2 69303  97.2841 187.6315 0000481  97.1257 263.0066 15.80891921  3087
STARLINK-37731          
1 69304U 26119J   26162.25002315 -.02540979  00000+0 -19404-1 0  9992
2 69304  97.2841 187.7557 0000976  80.6888 253.3230 15.75863380  3091
STARLINK-37734          
1 69305U 26119K   26162.31469948  .00167675  00000+0  85657-3 0  9998
2 69305  97.2841 187.8347 0001528 102.2301 257.9138 15.80888223  3114
STARLINK-37701          
1 69306U 26119L   26162.31443053  .00152632  00000+0  78153-3 0  9998
2 69306  97.2840 187.8335 0000924  99.6122 260.5251 15.80877418  3110
STARLINK-37732          
1 69307U 26119M   26162.31401213  .00149284  00000+0  76427-3 0  9992
2 69307  97.2843 187.8357 0001896  99.2962 260.8521 15.80888818  3114
STARLINK-37689          
1 69308U 26119N   26162.25002315 -.02498235  00000+0 -19549-1 0  9993
2 69308  97.2844 187.7633 0001139  77.8503 274.5314 15.75236282  3090
STARLINK-37619          
1 69309U 26119P   26162.24900186  .00233138  00000+0  11806-2 0  9990
2 69309  97.2839 187.7697 0001046  73.8638 286.2745 15.80910012  3103
STARLINK-37794          
1 69310U 26119Q   26162.24676850  .00302131  00000+0  15158-2 0  9994
2 69310  97.2838 187.7729 0000533  89.5492 270.5838 15.80934977  3107
STARLINK-37795          
1 69311U 26119R   26162.25002315 -.02659722  00000+0 -20345-1 0  9993
2 69311  97.2844 187.7712 0001233  77.8299 292.2329 15.75368557  3093
STARLINK-37790          
1 69312U 26119S   26162.24546390  .00270339  00000+0  13620-2 0  9997
2 69312  97.2839 187.7745 0001283  91.7149 268.4266 15.80924984  3103
STARLINK-37676          
1 69313U 26119T   26162.25002315 -.00148806  00000+0 -78719-3 0  9999
2 69313  97.2838 187.7838 0000914  98.3437 299.2152 15.80878948  3091
STARLINK-37617          
1 69314U 26119U   26162.25002315 -.00098787  00000+0 -51924-3 0  9991
2 69314  97.2840 187.7868 0001284  85.4559 317.0569 15.80883101  3099
STARLINK-37627          
1 69315U 26119V   26162.25002315 -.00080772  00000+0 -42383-3 0  9996
2 69315  97.2841 187.7879 0001253  96.4729 307.8330 15.80868628  3090
STARLINK-37738          
1 69316U 26119W   26162.24449532  .00245656  00000+0  12416-2 0  9997
2 69316  97.2836 187.7760 0000810  70.3662 289.7693 15.80919645  3107
STARLINK-37799          
1 69317U 26119X   26162.25002315 -.00090638  00000+0 -47638-3 0  9998
2 69317  97.2835 187.7860 0001439  95.4231 304.8589 15.80861062  3041
STARLINK-37802          
1 69318U 26119Y   26162.25002315 -.00030382  00000+0 -15837-3 0  9995
2 69318  97.2841 187.7903 0001214  90.3495 321.4386 15.80823278  3096
STARLINK-37803          
1 69319U 26119Z   26162.25002315 -.00150042  00000+0 -79379-3 0  9993
2 69319  97.2836 187.7922 0001096  87.2419 328.2694 15.80879827  3044
