OBJECT_NAME,OBJECT_ID,EPOCH,MEAN_MOTION,ECCENTRICITY,INCLINATION,RA_OF_ASC_NODE,ARG_OF_PERICENTER,MEAN_ANOMALY,EPHEMERIS_TYPE,CLASSIFICATION_TYPE,NORAD_CAT_ID,ELEMENT_SET_NO,REV_AT_EPOCH,BSTAR,MEAN_MOTION_DOT,MEAN_MOTION_DDOT
KUIPER-00607,2026-118Z,2026-06-11T05:08:56.840928,15.37286424,.00062772,51.8674,82.1551,138.8842,221.2619,0,U,69290,999,306,.17746784E-3,.62E-4,0
KUIPER-00608,2026-118AA,2026-06-11T05:21:35.724096,15.35705626,.00092785,51.8601,82.2082,152.8716,207.2756,0,U,69291,999,306,.63764356E-3,.2219E-3,0
KUIPER-00610,2026-118AB,2026-06-11T04:59:07.796832,15.38223183,.00028112,51.8712,82.1042,115.6804,244.4473,0,U,69292,999,306,.97215526E-3,.36972E-3,0
KUIPER-00613,2026-118AC,2026-06-11T05:26:30.073344,15.35112908,.0009792,51.8633,82.2304,163.1756,196.9556,0,U,69293,999,306,-.35667904E-3,-.12726E-3,0
KUIPER-00618,2026-118AD,2026-06-11T04:54:56.921472,15.38470492,.00019521,51.8716,82.0851,72.0791,288.0409,0,U,69294,999,306,.53699904E-3,.20366E-3,0
KUIPER-00620,2026-118AE,2026-06-11T04:58:10.845408,15.38282598,.00030129,51.8713,82.1020,99.4839,260.6488,0,U,69295,999,306,.52925963E-3,.19942E-3,0
STARLINK-37501,2026-119A,2026-06-11T03:11:05.826048,15.79992123,.00010039,97.2838,187.6220,73.3961,286.7417,0,U,69296,999,308,.12308442E-2,.233145E-2,0
STARLINK-37496,2026-119B,2026-06-11T03:11:47.056128,15.79984296,.00009136,97.2844,187.6216,81.9068,278.2303,0,U,69297,999,308,.73541576E-3,.137661E-2,0
STARLINK-37519,2026-119C,2026-06-11T03:05:34.935648,15.80886794,.00012168,97.2845,187.6277,67.4063,292.7334,0,U,69298,999,308,.10081178E-2,.198045E-2,0
STARLINK-37455,2026-119D,2026-06-11T03:09:20.915712,15.80009895,.00009567,97.2843,187.6242,45.8111,314.3235,0,U,69299,999,308,.1215035E-2,.230256E-2,0
STARLINK-37456,2026-119E,2026-06-11T03:04:26.503392,15.80899911,.00007893,97.2841,187.6284,100.6770,259.4587,0,U,69300,999,308,.10744486E-2,.211543E-2,0
STARLINK-37630,2026-119F,2026-06-11T06:00:02.000160,15.75282279,.00013189,97.2841,187.7508,88.6505,231.6104,0,U,69301,999,309,-.17738738E-1,-.2303491E-1,0
STARLINK-37804,2026-119G,2026-06-11T06:00:02.000160,15.74947413,.00014814,97.2839,187.7507,93.2883,228.7791,0,U,69302,999,309,-.57715079E-2,-.778414E-2,0
STARLINK-37730,2026-119H,2026-06-11T03:01:13.047744,15.80891921,.00004815,97.2841,187.6315,97.1257,263.0066,0,U,69303,999,308,.10356273E-2,.203635E-2,0
STARLINK-37731,2026-119J,2026-06-11T06:00:02.000160,15.75863380,.00009762,97.2841,187.7557,80.6888,253.3230,0,U,69304,999,309,-.19403627E-1,-.2540979E-1,0
STARLINK-37734,2026-119K,2026-06-11T07:33:10.035072,15.80888223,.00015288,97.2841,187.8347,102.2301,257.9138,0,U,69305,999,311,.85656593E-3,.167675E-2,0
STARLINK-37701,2026-119L,2026-06-11T07:32:46.797792,15.80877418,.0000924,97.2840,187.8335,99.6122,260.5251,0,U,69306,999,311,.78153496E-3,.152632E-2,0
STARLINK-37732,2026-119M,2026-06-11T07:32:10.648032,15.80888818,.00018961,97.2843,187.8357,99.2962,260.8521,0,U,69307,999,311,.76427142E-3,.149284E-2,0
STARLINK-37689,2026-119N,2026-06-11T06:00:02.000160,15.75236282,.00011392,97.2844,187.7633,77.8503,274.5314,0,U,69308,999,309,-.19548638E-1,-.2498235E-1,0
STARLINK-37619,2026-119P,2026-06-11T05:58:33.760704,15.80910012,.00010464,97.2839,187.7697,73.8638,286.2745,0,U,69309,999,310,.1180568E-2,.233138E-2,0
STARLINK-37794,2026-119Q,2026-06-11T05:55:20.798400,15.80934977,.00005338,97.2838,187.7729,89.5492,270.5838,0,U,69310,999,310,.15157648E-2,.302131E-2,0
STARLINK-37795,2026-119R,2026-06-11T06:00:02.000160,15.75368557,.00012331,97.2844,187.7712,77.8299,292.2329,0,U,69311,999,309,-.20345488E-1,-.2659722E-1,0
STARLINK-37790,2026-119S,2026-06-11T05:53:28.080960,15.80924984,.00012835,97.2839,187.7745,91.7149,268.4266,0,U,69312,999,310,.13620231E-2,.270339E-2,0
STARLINK-37676,2026-119T,2026-06-11T06:00:02.000160,15.80878948,.00009147,97.2838,187.7838,98.3437,299.2152,0,U,69313,999,309,-.78719106E-3,-.148806E-2,0
STARLINK-37617,2026-119U,2026-06-11T06:00:02.000160,15.80883101,.00012843,97.2840,187.7868,85.4559,317.0569,0,U,69314,999,309,-.51924098E-3,-.98787E-3,0
STARLINK-37627,2026-119V,2026-06-11T06:00:02.000160,15.80868628,.00012539,97.2841,187.7879,96.4729,307.8330,0,U,69315,999,309,-.42382782E-3,-.80772E-3,0
STARLINK-37738,2026-119W,2026-06-11T05:52:04.395648,15.80919645,.00008104,97.2836,187.7760,70.3662,289.7693,0,U,69316,999,310,.12415636E-2,.245656E-2,0
STARLINK-37799,2026-119X,2026-06-11T06:00:02.000160,15.80861062,.00014391,97.2835,187.7860,95.4231,304.8589,0,U,69317,999,304,-.47637871E-3,-.90638E-3,0
STARLINK-37802,2026-119Y,2026-06-11T06:00:02.000160,15.80823278,.00012143,97.2841,187.7903,90.3495,321.4386,0,U,69318,999,309,-.15837082E-3,-.30382E-3,0
STARLINK-37803,2026-119Z,2026-06-11T06:00:02.000160,15.80879827,.00010968,97.2836,187.7922,87.2419,328.2694,0,U,69319,999,304,-.79379226E-3,-.150042E-2,0
